IRIDIUM 112             
1 41925U 17003J   24273.65876916  .00000426  00000+0  14494-3 0  9994
2 41925  86.4019 349.7168 0001994  88.5628 271.5796 14.34220787403641
IRIDIUM 111             
1 41926U 17003K   24273.57631875  .00000271  00000+0  89769-4 0  9995
2 41926  86.4021 349.8080 0001863  95.2085 264.9323 14.34216365403656
IRIDIUM 113             
1 42803U 17039A   24273.41672908  .00000890  00000+0  31059-3 0  9999
2 42803  86.3994 223.6127 0001974  83.8131 276.3290 14.34227892381492
IRIDIUM 123             
1 42804U 17039B   24273.45822815 -.00000035  00000+0 -19612-4 0  9993
2 42804  86.3922 255.0804 0002067  92.1039 268.0394 14.34217268380262
IRIDIUM 120             
1 42805U 17039C   24273.82901726  .00000496  00000+0  17012-3 0  9994
2 42805  86.3982 223.3044 0002355  85.0279 275.1185 14.34216241381549
IRIDIUM 115             
1 42806U 17039D   24273.82374236  .00001364  00000+0  39937-3 0  9990
2 42806  86.4520 223.3464 0001920  80.5920 279.5498 14.43276301384063
IRIDIUM 118             
1 42807U 17039E   24273.48994113 -.00000062  00000+0 -29353-4 0  9993
2 42807  86.3922 255.0678 0002283  88.1214 272.0243 14.34217117380265
IRIDIUM 117             
1 42808U 17039F   24273.50896946 -.00000116  00000+0 -48547-4 0  9998
2 42808  86.3923 255.0234 0002036  89.4396 270.7033 14.34216295380297
